NORAD_CAT_ID,OBJECT_NAME,OBJECT_TYPE,EPOCH,MEAN_MOTION,ECCENTRICITY,INCLINATION,RA_OF_ASC_NODE,ARG_OF_PERICENTER,MEAN_ANOMALY,BSTAR,MEAN_MOTION_DOT,MEAN_MOTION_DDOT,TLE_LINE0,TLE_LINE1,TLE_LINE2,SEMIMAJOR_AXIS,PERIOD,APOGEE,PERIGEE,DECAYED
51856.0,STARLINK-3568,PAYLOAD,2022-07-17 22:00:00,15.08817342,0.0001963,53.2142,233.1932,36.4948,143.641,0.0020384,0.00032282,0.0,0 STARLINK-3568,1 51856U 22022E   22198.91667824  .00032282  00000-0  20384-2 0  9994,2 51856  53.2142 233.1932 0001963  36.4948 143.6410 15.08817342  1302,6917.95,95.439,541.173,538.457,0.0
51856.0,STARLINK-3568,PAYLOAD,2022-07-18 14:00:01,15.08826464,0.0002242,53.2143,230.2019,34.0587,169.2551,0.0020119,0.00031865,0.0,0 STARLINK-3568,1 51856U 22022E   22199.58334491  .00031865  00000-0  20119-2 0  9991,2 51856  53.2143 230.2019 0002242  34.0587 169.2551 15.08826464 22242,6917.922,95.438,541.3380000000002,538.236,0.0
51856.0,STARLINK-3568,PAYLOAD,2022-07-18 22:00:00,15.08833063,0.0002094,53.2145,228.7036,38.378,176.5349,0.00045438,6.949e-05,0.0,0 STARLINK-3568,1 51856U 22022E   22199.91667824  .00006949  00000-0  45438-3 0  9994,2 51856  53.2145 228.7036 0002094  38.3780 176.5349 15.08833063  1305,6917.901999999999,95.438,541.215,538.318,0.0
51856.0,STARLINK-3568,PAYLOAD,2022-07-19 06:00:00,15.08840701,0.0002271,53.2147,227.2082,40.4693,186.04,-0.0021576,-0.00034465,0.0,0 STARLINK-3568,1 51856U 22022E   22200.25001157 -.00034465  00000-0 -21576-2 0  9997,2 51856  53.2147 227.2082 0002271  40.4693 186.0400 15.08840701 22344,6917.878000000002,95.438,541.314,538.172,0.0
51856.0,STARLINK-3568,PAYLOAD,2022-07-19 14:00:01,15.08815896,0.0002411,53.2147,225.7125,37.6851,200.4037,0.0014771,0.00023283,0.0,0 STARLINK-3568,1 51856U 22022E   22200.58334491  .00023283  00000-0  14771-2 0  9996,2 51856  53.2147 225.7125 0002411  37.6851 200.4037 15.08815896  1302,6917.954000000002,95.439,541.487,538.151,0.0
51856.0,STARLINK-3568,PAYLOAD,2022-07-19 22:00:00,15.08817369,0.0002211,53.216,224.2107,39.5945,210.0802,0.00079084,0.00012313,0.0,0 STARLINK-3568,1 51856U 22022E   22200.91667824  .00012313  00000-0  79084-3 0  9993,2 51856  53.2160 224.2107 0002211  39.5945 210.0802 15.08817369  1308,6917.95,95.439,541.344,538.285,0.0
51856.0,STARLINK-3568,PAYLOAD,2022-07-20 14:00:01,15.08838153,0.0002494,53.2152,221.2231,39.0654,233.7822,0.00079909,0.00012452,0.0,0 STARLINK-3568,1 51856U 22022E   22201.58334491  .00012452  00000-0  79909-3 0  9998,2 51856  53.2152 221.2231 0002494  39.0654 233.7822 15.08838153  1307,6917.886,95.438,541.476,538.026,0.0
51856.0,STARLINK-3568,PAYLOAD,2022-07-20 22:00:01,15.08827687,0.0002298,53.2155,219.725,42.9077,241.606,0.001422,0.00022408,0.0,0 STARLINK-3568,1 51856U 22022E   22201.91668981  .00022408  00000-0  14220-2 0  9995,2 51856  53.2155 219.7250 0002298  42.9077 241.6060 15.08827687 22593,6917.918000000002,95.438,541.373,538.193,0.0
51856.0,STARLINK-3568,PAYLOAD,2022-07-21 08:00:01,15.08823758,0.000247,53.2156,217.8561,39.9547,348.98800000000006,-0.00082417,-0.00013376,0.0,0 STARLINK-3568,1 51856U 22022E   22202.33334491 -.00013376  00000-0 -82417-3 0  9998,2 51856  53.2156 217.8561 0002470  39.9547 348.9880 15.08823758 22662,6917.93,95.439,541.504,538.086,0.0
51856.0,STARLINK-3568,PAYLOAD,2022-07-21 14:00:01,15.08824091,0.0002469,53.2154,216.7338,38.2107,269.4694,-9.3558e-05,-1.776e-05,0.0,0 STARLINK-3568,1 51856U 22022E   22202.58335648 -.00001776  00000-0 -93558-4 0  9990,2 51856  53.2154 216.7338 0002469  38.2107 269.4694 15.08824091  1301,6917.929,95.439,541.502,538.086,0.0
51856.0,STARLINK-3568,PAYLOAD,2022-07-21 22:00:00,15.08799316,0.0002285,53.2156,215.2359,43.1047,276.0968,0.0029411,0.00046779,0.0,0 STARLINK-3568,1 51856U 22022E   22202.91667824  .00046779  00000-0  29411-2 0  9996,2 51856  53.2156 215.2359 0002285  43.1047 276.0968 15.08799316  1303,6918.005,95.44,541.451,538.289,0.0
51856.0,STARLINK-3568,PAYLOAD,2022-07-22 06:00:00,15.0883856,0.0002431,53.2156,213.7409,41.8376,288.9317,-0.0014824999999999,-0.00023805,0.0,0 STARLINK-3568,1 51856U 22022E   22203.25001157 -.00023805  00000-0 -14825-2 0  9995,2 51856  53.2156 213.7409 0002431  41.8376 288.9317 15.08838560  1300,6917.885,95.438,541.432,538.068,0.0
51856.0,STARLINK-3568,PAYLOAD,2022-07-22 22:00:00,15.08808676,0.0002294,53.2152,210.7469,45.1524,308.7921,0.0030482,0.00048518,0.0,0 STARLINK-3568,1 51856U 22022E   22203.91667824  .00048518  00000-0  30482-2 0  9990,2 51856  53.2152 210.7469 0002294  45.1524 308.7921 15.08808676  1305,6917.976,95.44,541.428,538.254,0.0
51856.0,STARLINK-3568,PAYLOAD,2022-07-23 14:00:01,15.08844892,0.0002497,53.2146,207.7556,41.9273,335.242,-0.0011169,-0.00018023,0.0,0 STARLINK-3568,1 51856U 22022E   22204.58335648 -.00018023  00000-0 -11169-2 0  9991,2 51856  53.2146 207.7556 0002497  41.9273 335.2420 15.08844892 23001,6917.865,95.437,541.4580000000002,538.003,0.0
51856.0,STARLINK-3568,PAYLOAD,2022-07-23 22:00:00,15.08815869,0.0002327,53.2146,206.2578,47.4538,341.2551,0.0028585999999999,0.00045471,0.0,0 STARLINK-3568,1 51856U 22022E   22204.91667824  .00045471  00000-0  28586-2 0  9998,2 51856  53.2146 206.2578 0002327  47.4538 341.2551 15.08815869  1309,6917.954000000002,95.439,541.429,538.2090000000002,0.0
51856.0,STARLINK-3568,PAYLOAD,2022-07-24 06:00:00,15.08849061,0.000251,53.2145,204.7631,45.5269,354.7686,-0.0014494,-0.00023288,0.0,0 STARLINK-3568,1 51856U 22022E   22205.25001157 -.00023288  00000-0 -14494-2 0  9994,2 51856  53.2145 204.7631 0002510  45.5269 354.7686 15.08849061 23106,6917.853,95.437,541.4540000000002,537.981,0.0
51856.0,STARLINK-3568,PAYLOAD,2022-07-24 14:00:01,15.08852419,0.0002534,53.214,203.2664,44.1304,7.7554,-0.0013972,-0.00022465,0.0,0 STARLINK-3568,1 51856U 22022E   22205.58334491 -.00022465  00000-0 -13972-2 0  9996,2 51856  53.2140 203.2664 0002534  44.1304   7.7554 15.08852419  1300,6917.842,95.437,541.46,537.9540000000002,0.0
51856.0,STARLINK-3568,PAYLOAD,2022-07-24 22:00:00,15.08823668,0.0002399,53.2139,201.7686,49.4599,14.0324,0.002507,0.0003982,0.0,0 STARLINK-3568,1 51856U 22022E   22205.91667824  .00039820  00000-0  25070-2 0  9995,2 51856  53.2139 201.7686 0002399  49.4599  14.0324 15.08823668  1308,6917.93,95.439,541.455,538.136,0.0
51856.0,STARLINK-3568,PAYLOAD,2022-07-25 14:00:01,15.08859046,0.0002601,53.2137,198.7771,45.8869,40.7942,-0.0015967,-0.00025625,0.0,0 STARLINK-3568,1 51856U 22022E   22206.58334491 -.00025625  00000-0 -15967-2 0  9994,2 51856  53.2137 198.7771 0002601  45.8869  40.7942 15.08859046  1303,6917.821999999999,95.436,541.486,537.888,0.0
51856.0,STARLINK-3568,PAYLOAD,2022-07-25 22:00:00,15.08832764,0.0002505999999999,53.2138,197.2792,50.9773,47.3147,0.0021791,0.00034557,0.0,0 STARLINK-3568,1 51856U 22022E   22206.91667824  .00034557  00000-0  21791-2 0  9994,2 51856  53.2138 197.2792 0002506  50.9773  47.3147 15.08832764  1304,6917.903,95.438,541.501,538.034,0.0
51856.0,STARLINK-3568,PAYLOAD,2022-07-26 06:00:00,15.08854093,0.0002703,53.2138,195.7845,48.4523,61.4419,-0.001004,-0.00016239,0.0,0 STARLINK-3568,1 51856U 22022E   22207.25001157 -.00016239  00000-0 -10040-2 0  9997,2 51856  53.2138 195.7845 0002703  48.4523  61.4419 15.08854093 23403,6917.837,95.437,541.572,537.832,0.0
51856.0,STARLINK-3568,PAYLOAD,2022-07-26 14:00:01,15.08866409,0.0002691,53.2138,194.2876,47.4451,74.0498,-0.0017676999999999,-0.00028333,0.0,0 STARLINK-3568,1 51856U 22022E   22207.58334491 -.00028333  00000-0 -17677-2 0  9994,2 51856  53.2138 194.2876 0002691  47.4451  74.0498 15.08866409  1302,6917.8,95.436,541.526,537.803,0.0
51856.0,STARLINK-3568,PAYLOAD,2022-07-26 22:00:00,15.08853143,0.0002593,53.2142,192.7897,51.8859,81.2238,-0.000173,-3.042e-05,0.0,0 STARLINK-3568,1 51856U 22022E   22207.91667824 -.00003042  00000-0 -17300-3 0  9994,2 51856  53.2142 192.7897 0002593  51.8859  81.2238 15.08853143 23504,6917.84,95.437,541.499,537.911,0.0
51856.0,STARLINK-3568,PAYLOAD,2022-07-27 14:00:01,15.08849055,0.0002701,53.2144,189.798,47.6958,108.6105,-0.0019367,-0.00030989,0.0,0 STARLINK-3568,1 51856U 22022E   22208.58334491 -.00030989  00000-0 -19367-2 0  9993,2 51856  53.2144 189.7980 0002701  47.6958 108.6105 15.08849055  1307,6917.853,95.437,541.586,537.849,0.0
51856.0,STARLINK-3568,PAYLOAD,2022-07-27 22:00:00,15.088287300000005,0.0002628999999999,53.2148,188.3005,52.477,115.4228,0.0015620999999999,0.00024653,0.0,0 STARLINK-3568,1 51856U 22022E   22208.91667824  .00024653  00000-0  15621-2 0  9997,2 51856  53.2148 188.3005 0002629  52.4770 115.4228 15.08828730  1308,6917.915,95.438,541.599,537.961,0.0
51856.0,STARLINK-3568,PAYLOAD,2022-07-28 14:00:01,15.0885992,0.0002767,53.2151,185.3086,49.8456,141.2372,-0.0020997,-0.00033571,0.0,0 STARLINK-3568,1 51856U 22022E   22209.58334491 -.00033571  00000-0 -20997-2 0  9995,2 51856  53.2151 185.3086 0002767  49.8456 141.2372 15.08859920  1304,6917.82,95.436,541.599,537.77,0.0
51856.0,STARLINK-3568,PAYLOAD,2022-07-28 22:00:00,15.08841448,0.0002694,53.2155,183.8113,54.3389,148.3475,0.0013338,0.00021005,0.0,0 STARLINK-3568,1 51856U 22022E   22209.91667824  .00021005  00000-0  13338-2 0  9999,2 51856  53.2155 183.8113 0002694  54.3389 148.3475 15.08841448  1305,6917.876,95.437,541.605,537.877,0.0
51856.0,STARLINK-3568,PAYLOAD,2022-07-29 00:00:00,15.08858571,0.0002688,53.2157,183.4375,54.0494,241.5328,-0.00060599,-9.925e-05,0.0,0 STARLINK-3568,1 51856U 22022E   22210.00001157 -.00009925  00000-0 -60599-3 0  9993,2 51856  53.2157 183.4375 0002688  54.0494 241.5328 15.08858571 23818,6917.824000000001,95.436,541.548,537.8290000000002,0.0
51856.0,STARLINK-3568,PAYLOAD,2022-07-29 14:00:01,15.08841129,0.0002701,53.2156,180.8193,50.4668,175.4212,-0.0022960999999999,-0.00036649,0.0,0 STARLINK-3568,1 51856U 22022E   22210.58334491 -.00036649  00000-0 -22961-2 0  9999,2 51856  53.2156 180.8193 0002701  50.4668 175.4212 15.08841129  1303,6917.877,95.437,541.61,537.873,0.0
